start=new Date('2023-05-11T00:00:00.000Z').valueOf();
sats=[{"MEAN_MOTION":"15.06380571","PERIOD":"95.593","REV_AT_EPOCH":"18401","TLE_LINE2":"2 44914  53.0530 307.9146 0000829  63.1239 296.9835 15.06380571184015","INCLINATION":"53.0530","BSTAR":"0.00184060000000","DECAY_DATE":null,"MEAN_ANOMALY":"296.9835","MEAN_ELEMENT_THEORY":"SGP4","SITE":"AFETR","EPOCH":"2023-05-10T19:15:50.976576","ELEMENT_SET_NO":"999","EPHEMERIS_TYPE":"0","LAUNCH_DATE":"2020-01-07","PERIAPSIS":"546.699","ARG_OF_PERICENTER":"63.1239","SEMIMAJOR_AXIS":"6925.408","OBJECT_NAME":"STARLINK-1073","ECCENTRICITY":"0.00008290","FILE":"3904830","TLE_LINE1":"1 44914U 20001A   23130.80267334  .00027226  00000-0  18406-2 0  9997","APOAPSIS":"547.847","COUNTRY_CODE":"US","CENTER_NAME":"EARTH","OBJECT_TYPE":"PAYLOAD","NORAD_CAT_ID":"44914","MEAN_MOTION_DOT":"0.00027226","TIME_SYSTEM":"UTC","RA_OF_ASC_NODE":"307.9146","CLASSIFICATION_TYPE":"U","RCS_SIZE":"LARGE","GP_ID":"231564187","MEAN_MOTION_DDOT":"0.0000000000000","OBJECT_ID":"2020-001A","REF_FRAME":"TEME"},{"INCLINATION":"53.0550","BSTAR":"0.00091197000000","MEAN_MOTION":"15.06383495","PERIOD":"95.593","REV_AT_EPOCH":"18401","TLE_LINE2":"2 44915  53.0550 308.0830 0001200 102.7299 257.3824 15.06383495184017","MEAN_ANOMALY":"257.3824","DECAY_DATE":null,"MEAN_ELEMENT_THEORY":"SGP4","SITE":"AFETR","EPHEMERIS_TYPE":"0","LAUNCH_DATE":"2020-01-07","EPOCH":"2023-05-10T18:22:46.687296","ELEMENT_SET_NO":"999","ARG_OF_PERICENTER":"102.7299","SEMIMAJOR_AXIS":"6925.399","OBJECT_NAME":"STARLINK-1084","ECCENTRICITY":"0.00012000","PERIAPSIS":"546.433","TLE_LINE1":"1 44915U 20001B   23130.76581814  .00013322  00000-0  91197-3 0  9996","APOAPSIS":"548.095","COUNTRY_CODE":"US","OBJECT_TYPE":"PAYLOAD","CENTER_NAME":"EARTH","FILE":"3904830","RA_OF_ASC_NODE":"308.0830","CLASSIFICATION_TYPE":"U","NORAD_CAT_ID":"44915","MEAN_MOTION_DOT":"0.00013322","TIME_SYSTEM":"UTC","GP_ID":"231564437","MEAN_MOTION_DDOT":"0.0000000000000","OBJECT_ID":"2020-001B","REF_FRAME":"TEME","RCS_SIZE":"LARGE"},{"PERIAPSIS":"546.291","ARG_OF_PERICENTER":"64.2648","SEMIMAJOR_AXIS":"6925.385","ECCENTRICITY":"0.00013850","OBJECT_NAME":"STARLINK-1098","EPOCH":"2023-05-10T20:03:37.797696","ELEMENT_SET_NO":"999","EPHEMERIS_TYPE":"0","LAUNCH_DATE":"2020-01-07","MEAN_ELEMENT_THEORY":"SGP4","MEAN_ANOMALY":"295.8484","DECAY_DATE":null,"SITE":"AFETR","PERIOD":"95.593","MEAN_MOTION":"15.06387987","TLE_LINE2":"2 44917  53.0538 307.7712 0001385  64.2648 295.8484 15.06387987184024","REV_AT_EPOCH":"18402","INCLINATION":"53.0538","BSTAR":"0.00214890000000","RCS_SIZE":"LARGE","MEAN_MOTION_DDOT":"0.0000000000000","GP_ID":"231563187","REF_FRAME":"TEME","OBJECT_ID":"2020-001D","MEAN_MOTION_DOT":"0.00031861","NORAD_CAT_ID":"44917","TIME_SYSTEM":"UTC","CLASSIFICATION_TYPE":"U","RA_OF_ASC_NODE":"307.7712","FILE":"3904830","APOAPSIS":"548.210","TLE_LINE1":"1 44917U 20001D   23130.83585414  .00031861  00000-0  21489-2 0  9990","OBJECT_TYPE":"PAYLOAD","CENTER_NAME":"EARTH","COUNTRY_CODE":"US"},{"CLASSIFICATION_TYPE":"U","RA_OF_ASC_NODE":"308.0311","MEAN_MOTION_DOT":"0.00029800","NORAD_CAT_ID":"44918","TIME_SYSTEM":"UTC","MEAN_MOTION_DDOT":"0.0000000000000","GP_ID":"231562936","REF_FRAME":"TEME","OBJECT_ID":"2020-001E","RCS_SIZE":"LARGE","APOAPSIS":"547.920","TLE_LINE1":"1 44918U 20001E   23130.78330518  .00029800  00000-0  20112-2 0  9990","OBJECT_TYPE":"PAYLOAD","CENTER_NAME":"EARTH","COUNTRY_CODE":"US","FILE":"3904830","EPHEMERIS_TYPE":"0","LAUNCH_DATE":"2020-01-07","EPOCH":"2023-05-10T18:47:57.567552","ELEMENT_SET_NO":"999","ARG_OF_PERICENTER":"90.4997","SEMIMAJOR_AXIS":"6925.359","ECCENTRICITY":"0.00010050","OBJECT_NAME":"STARLINK-1099","PERIAPSIS":"546.528","INCLINATION":"53.0544","BSTAR":"0.00201120000000","PERIOD":"95.592","MEAN_MOTION":"15.06396595","TLE_LINE2":"2 44918  53.0544 308.0311 0001005  90.4997 269.6107 15.06396595184754","REV_AT_EPOCH":"18475","MEAN_ELEMENT_THEORY":"SGP4","DECAY_DATE":null,"MEAN_ANOMALY":"269.6107","SITE":"AFETR"},{"INCLINATION":"53.0546","BSTAR":"0.00131000000000","MEAN_MOTION":"15.18798811","PERIOD":"94.812","REV_AT_EPOCH":"18411","TLE_LINE2":"2 44920  53.0546 300.8791 0002993 162.9505 197.1591 15.18798811184110","DECAY_DATE":null,"MEAN_ANOMALY":"197.1591","MEAN_ELEMENT_THEORY":"SGP4","SITE":"AFETR","EPHEMERIS_TYPE":"0","LAUNCH_DATE":"2020-01-07","EPOCH":"2023-05-10T18:40:23.690208","ELEMENT_SET_NO":"999","ARG_OF_PERICENTER":"162.9505","SEMIMAJOR_AXIS":"6887.607","OBJECT_NAME":"STARLINK-1102","ECCENTRICITY":"0.00029930","PERIAPSIS":"507.410","TLE_LINE1":"1 44920U 20001G   23130.77805197  .00027379  00000-0  13100-2 0  9990","APOAPSIS":"511.533","COUNTRY_CODE":"US","OBJECT_TYPE":"PAYLOAD","CENTER_NAME":"EARTH","FILE":"3904830","RA_OF_ASC_NODE":"300.8791","CLASSIFICATION_TYPE":"U","NORAD_CAT_ID":"44920","MEAN_MOTION_DOT":"0.00027379","TIME_SYSTEM":"UTC","GP_ID":"231563688","MEAN_MOTION_DDOT":"0.0000000000000","OBJECT_ID":"2020-001G","REF_FRAME":"TEME","RCS_SIZE":"LARGE"},{"FILE":"3904830","APOAPSIS":"548.264","TLE_LINE1":"1 44921U 20001H   23130.75012851  .00024028  00000-0  16272-2 0  9997","OBJECT_TYPE":"PAYLOAD","CENTER_NAME":"EARTH","COUNTRY_CODE":"US","MEAN_MOTION_DOT":"0.00024028","NORAD_CAT_ID":"44921","TIME_SYSTEM":"UTC","CLASSIFICATION_TYPE":"U","RA_OF_ASC_NODE":"308.1437","RCS_SIZE":"LARGE","MEAN_MOTION_DDOT":"0.0000000000000","GP_ID":"231563938","REF_FRAME":"TEME","OBJECT_ID":"2020-001H","PERIOD":"95.593","MEAN_MOTION":"15.06383222","TLE_LINE2":"2 44921  53.0538 308.1437 0001442  73.4744 286.6404 15.06383222183983","REV_AT_EPOCH":"18398","INCLINATION":"53.0538","BSTAR":"0.00162720000000","MEAN_ELEMENT_THEORY":"SGP4","DECAY_DATE":null,"MEAN_ANOMALY":"286.6404","SITE":"AFETR","EPOCH":"2023-05-10T18:00:11.103264","ELEMENT_SET_NO":"999","EPHEMERIS_TYPE":"0","LAUNCH_DATE":"2020-01-07","PERIAPSIS":"546.266","ARG_OF_PERICENTER":"73.4744","SEMIMAJOR_AXIS":"6925.400","OBJECT_NAME":"STARLINK-1103","ECCENTRICITY":"0.00014420"},{"MEAN_MOTION_DDOT":"0.0000000000000","GP_ID":"231562687","REF_FRAME":"TEME","OBJECT_ID":"2020-001J","RCS_SIZE":"LARGE","CLASSIFICATION_TYPE":"U","RA_OF_ASC_NODE":"307.9979","MEAN_MOTION_DOT":"0.00026527","NORAD_CAT_ID":"44922","TIME_SYSTEM":"UTC","APOAPSIS":"547.965","TLE_LINE1":"1 44922U 20001J   23130.78423908  .00026527  00000-0  17936-2 0  9994","CENTER_NAME":"EARTH","OBJECT_TYPE":"PAYLOAD","COUNTRY_CODE":"US","FILE":"3904830","ARG_OF_PERICENTER":"104.2643","OBJECT_NAME":"STARLINK-1104","SEMIMAJOR_AXIS":"6925.384","ECCENTRICITY":"0.00010340","PERIAPSIS":"546.533","EPHEMERIS_TYPE":"0","LAUNCH_DATE":"2020-01-07","EPOCH":"2023-05-10T18:49:18.256512","ELEMENT_SET_NO":"999","MEAN_ELEMENT_THEORY":"SGP4","DECAY_DATE":null,"MEAN_ANOMALY":"255.8461","SITE":"AFETR","INCLINATION":"53.0538","BSTAR":"0.00179360000000","PERIOD":"95.593","MEAN_MOTION":"15.06388463","TLE_LINE2":"2 44922  53.0538 307.9979 0001034 104.2643 255.8461 15.06388463184018","REV_AT_EPOCH":"18401"},{"RA_OF_ASC_NODE":"305.0674","CLASSIFICATION_TYPE":"U","TIME_SYSTEM":"UTC","NORAD_CAT_ID":"44923","MEAN_MOTION_DOT":"0.00040933","OBJECT_ID":"2020-001K","REF_FRAME":"TEME","GP_ID":"231563437","MEAN_MOTION_DDOT":"0.0000000000000","RCS_SIZE":"LARGE","COUNTRY_CODE":"US","OBJECT_TYPE":"PAYLOAD","CENTER_NAME":"EARTH","TLE_LINE1":"1 44923U 20001K   23130.80202393  .00040933  00000-0  22886-2 0  9998","APOAPSIS":"527.785","FILE":"3904830","LAUNCH_DATE":"2020-01-07","EPHEMERIS_TYPE":"0","ELEMENT_SET_NO":"999","EPOCH":"2023-05-10T19:14:54.867552","ECCENTRICITY":"0.00015340","SEMIMAJOR_AXIS":"6904.861","OBJECT_NAME":"STARLINK-1106","ARG_OF_PERICENTER":"47.2859","PERIAPSIS":"525.667","BSTAR":"0.00228860000000","INCLINATION":"53.0536","REV_AT_EPOCH":"18405","TLE_LINE2":"2 44923  53.0536 305.0674 0001534  47.2859 312.8262 15.13109451184051","MEAN_MOTION":"15.13109451","PERIOD":"95.168","SITE":"AFETR","DECAY_DATE":null,"MEAN_ANOMALY":"312.8262","MEAN_ELEMENT_THEORY":"SGP4"},{"PERIAPSIS":"546.389","ARG_OF_PERICENTER":"99.3098","SEMIMAJOR_AXIS":"6925.354","ECCENTRICITY":"0.00011980","OBJECT_NAME":"STARLINK-1111","EPOCH":"2023-05-10T19:10:32.806848","ELEMENT_SET_NO":"999","EPHEMERIS_TYPE":"0","LAUNCH_DATE":"2020-01-07","MEAN_ELEMENT_THEORY":"SGP4","DECAY_DATE":null,"MEAN_ANOMALY":"260.8027","SITE":"AFETR","PERIOD":"95.592","MEAN_MOTION":"15.06398214","TLE_LINE2":"2 44924  53.0542 307.9562 0001198  99.3098 260.8027 15.06398214184011","REV_AT_EPOCH":"18401","INCLINATION":"53.0542","BSTAR":"0.00063951000000","RCS_SIZE":"LARGE","MEAN_MOTION_DDOT":"0.0000000000000","GP_ID":"231564188","REF_FRAME":"TEME","OBJECT_ID":"2020-001L","MEAN_MOTION_DOT":"0.00009256","NORAD_CAT_ID":"44924","TIME_SYSTEM":"UTC","CLASSIFICATION_TYPE":"U","RA_OF_ASC_NODE":"307.9562","FILE":"3904830","APOAPSIS":"548.049","TLE_LINE1":"1 44924U 20001L   23130.79899082  .00009256  00000-0  63951-3 0  9996","OBJECT_TYPE":"PAYLOAD","CENTER_NAME":"EARTH","COUNTRY_CODE":"US"},{"FILE":"3904639","CENTER_NAME":"EARTH","OBJECT_TYPE":"PAYLOAD","COUNTRY_CODE":"US","APOAPSIS":"547.825","TLE_LINE1":"1 44925U 20001M   23130.81373252  .00027824  00000-0  18803-2 0  9992","RCS_SIZE":"LARGE","REF_FRAME":"TEME","OBJECT_ID":"2020-001M","MEAN_MOTION_DDOT":"0.0000000000000","GP_ID":"231539973","TIME_SYSTEM":"UTC","MEAN_MOTION_DOT":"0.00027824","NORAD_CAT_ID":"44925","CLASSIFICATION_TYPE":"U","RA_OF_ASC_NODE":"307.8686","SITE":"AFETR","MEAN_ELEMENT_THEORY":"SGP4","DECAY_DATE":null,"MEAN_ANOMALY":"262.5997","TLE_LINE2":"2 44925  53.0535 307.8686 0000811  97.5084 262.5997 15.06383913184011","REV_AT_EPOCH":"18401","PERIOD":"95.593","MEAN_MOTION":"15.06383913","BSTAR":"0.00188030000000","INCLINATION":"53.0535","PERIAPSIS":"546.701","OBJECT_NAME":"STARLINK-1112","SEMIMAJOR_AXIS":"6925.398","ECCENTRICITY":"0.00008110","ARG_OF_PERICENTER":"97.5084","ELEMENT_SET_NO":"999","EPOCH":"2023-05-10T19:31:46.489728","LAUNCH_DATE":"2020-01-07","EPHEMERIS_TYPE":"0"}];
